QIANFAN-25              
1 61558U 24185G   25285.29861701  .00000678  00000+0  40642-3 0  9990
2 61558  88.9755  85.1385 0010161 130.6371 229.5697 14.05819841 60871
QIANFAN-26              
1 61559U 24185H   25285.30824133  .00000362  00000+0  34970-3 0  9998
2 61559  88.9753  86.3777 0005508 177.8913 182.2278 13.77760099 60218
QIANFAN-27              
1 61560U 24185J   25285.26343922  .00000803  00000+0  32295-3 0  9995
2 61560  88.9751  84.1475 0009790 123.4032 236.8100 14.27213385 61392
QIANFAN-28              
1 61561U 24185K   25285.34424831  .00001216  00000+0  48593-3 0  9991
2 61561  88.9768  84.1364 0008906 122.6107 237.5948 14.27838666 61416
QIANFAN-29              
1 61562U 24185L   25285.34034574  .00000244  00000+0  35928-3 0  9991
2 61562  88.9730  87.6523 0008888 221.3102 138.7377 13.50979314 59508
QIANFAN-30              
1 61563U 24185M   25285.34285947  .00000233  00000+0  34863-3 0  9999
2 61563  88.9749  87.1538 0006798 200.7615 159.3261 13.49956810 59783
QIANFAN-31              
1 61564U 24185N   25285.30317456  .00000267  00000+0  35289-3 0  9997
2 61564  88.9735  87.0571 0006516 196.1955 163.8992 13.57929815 59828
QIANFAN-32              
1 61565U 24185P   25285.34528360  .00000232  00000+0  34210-3 0  9995
2 61565  88.9794  87.2692 0007897 233.3000 126.7426 13.50708351 59753
